[{"OBJECT_NAME":"PTD-4 (LISA-T)","OBJECT_ID":"2024-149DB","EPOCH":"2026-03-09T16:01:41.648160","MEAN_MOTION":15.17820166,"ECCENTRICITY":0.00028752,"INCLINATION":97.6982,"RA_OF_ASC_NODE":155.5534,"ARG_OF_PERICENTER":46.4623,"MEAN_ANOMALY":313.6849,"EPHEMERIS_TYPE":0,"CLASSIFICATION_TYPE":"U","NORAD_CAT_ID":60565,"ELEMENT_SET_NO":999,"REV_AT_EPOCH":8570,"BSTAR":0.0011421385,"MEAN_MOTION_DOT":0.0002309,"MEAN_MOTION_DDOT":0},{"OBJECT_NAME":"OBJECT E","OBJECT_ID":"2024-205E","EPOCH":"2026-03-09T21:50:57.607872","MEAN_MOTION":15.117677,"ECCENTRICITY":0.00499914,"INCLINATION":97.419,"RA_OF_ASC_NODE":142.6836,"ARG_OF_PERICENTER":337.9131,"MEAN_ANOMALY":21.9945,"EPHEMERIS_TYPE":0,"CLASSIFICATION_TYPE":"U","NORAD_CAT_ID":61898,"ELEMENT_SET_NO":999,"REV_AT_EPOCH":7323,"BSTAR":0.00048588417,"MEAN_MOTION_DOT":8.479e-5,"MEAN_MOTION_DDOT":0}]
